CCSDS_OMM_VERS = 2.0
CREATION_DATE  = 
ORIGINATOR     = 

OBJECT_NAME    = COSMOS 2058
OBJECT_ID      = 1990-010A
CENTER_NAME    = EARTH
REF_FRAME      = TEME
TIME_SYSTEM    = UTC
MEAN_ELEMENT_THEORY = SGP/SGP4

EPOCH          = 2026-03-09T10:47:18.236832
MEAN_MOTION    = 15.11318921
ECCENTRICITY   = .00093745
INCLINATION    = 82.4670
RA_OF_ASC_NODE = 47.6646
ARG_OF_PERICENTER = 345.0233
MEAN_ANOMALY   = 15.0718

EPHEMERIS_TYPE = 0
CLASSIFICATION_TYPE = U
NORAD_CAT_ID   = 20465
ELEMENT_SET_NO = 999
REV_AT_EPOCH   = 94220
BSTAR          = .29631294E-3
MEAN_MOTION_DOT = .5023E-4
MEAN_MOTION_DDOT = 0

CCSDS_OMM_VERS = 2.0
CREATION_DATE  = 
ORIGINATOR     = 

OBJECT_NAME    = SL-14 R/B
OBJECT_ID      = 1990-010B
CENTER_NAME    = EARTH
REF_FRAME      = TEME
TIME_SYSTEM    = UTC
MEAN_ELEMENT_THEORY = SGP/SGP4

EPOCH          = 2026-03-09T14:52:00.601824
MEAN_MOTION    = 14.83568711
ECCENTRICITY   = .0018538
INCLINATION    = 82.4987
RA_OF_ASC_NODE = 267.4549
ARG_OF_PERICENTER = 302.6174
MEAN_ANOMALY   = 57.3252

EPHEMERIS_TYPE = 0
CLASSIFICATION_TYPE = U
NORAD_CAT_ID   = 20466
ELEMENT_SET_NO = 999
REV_AT_EPOCH   = 92847
BSTAR          = .60041E-4
MEAN_MOTION_DOT = .519E-5
MEAN_MOTION_DDOT = 0

CCSDS_OMM_VERS = 2.0
CREATION_DATE  = 
ORIGINATOR     = 

OBJECT_NAME    = SL-14 R/B
OBJECT_ID      = 1990-018B
CENTER_NAME    = EARTH
REF_FRAME      = TEME
TIME_SYSTEM    = UTC
MEAN_ELEMENT_THEORY = SGP/SGP4

EPOCH          = 2026-03-09T12:03:10.669248
MEAN_MOTION    = 14.82144727
ECCENTRICITY   = .00176767
INCLINATION    = 82.5202
RA_OF_ASC_NODE = 223.2647
ARG_OF_PERICENTER = 92.6107
MEAN_ANOMALY   = 267.7131

EPHEMERIS_TYPE = 0
CLASSIFICATION_TYPE = U
NORAD_CAT_ID   = 20511
ELEMENT_SET_NO = 999
REV_AT_EPOCH   = 92255
BSTAR          = .83952142E-4
MEAN_MOTION_DOT = .693E-5
MEAN_MOTION_DDOT = 0

CCSDS_OMM_VERS = 2.0
CREATION_DATE  = 
ORIGINATOR     = 

OBJECT_NAME    = HST
OBJECT_ID      = 1990-037B
CENTER_NAME    = EARTH
REF_FRAME      = TEME
TIME_SYSTEM    = UTC
MEAN_ELEMENT_THEORY = SGP/SGP4

EPOCH          = 2026-03-09T03:50:04.164288
MEAN_MOTION    = 15.29473555
ECCENTRICITY   = .00018372
INCLINATION    = 28.4717
RA_OF_ASC_NODE = 43.6133
ARG_OF_PERICENTER = 120.9992
MEAN_ANOMALY   = 239.0785

EPHEMERIS_TYPE = 0
CLASSIFICATION_TYPE = U
NORAD_CAT_ID   = 20580
ELEMENT_SET_NO = 999
REV_AT_EPOCH   = 77323
BSTAR          = .3002261E-3
MEAN_MOTION_DOT = .9063E-4
MEAN_MOTION_DDOT = 0

CCSDS_OMM_VERS = 2.0
CREATION_DATE  = 
ORIGINATOR     = 

OBJECT_NAME    = SL-16 R/B
OBJECT_ID      = 1990-046B
CENTER_NAME    = EARTH
REF_FRAME      = TEME
TIME_SYSTEM    = UTC
MEAN_ELEMENT_THEORY = SGP/SGP4

EPOCH          = 2026-03-09T20:07:32.727072
MEAN_MOTION    = 14.15012359
ECCENTRICITY   = .0016219
INCLINATION    = 70.9988
RA_OF_ASC_NODE = 297.6021
ARG_OF_PERICENTER = 299.3998
MEAN_ANOMALY   = 60.5505

EPHEMERIS_TYPE = 0
CLASSIFICATION_TYPE = U
NORAD_CAT_ID   = 20625
ELEMENT_SET_NO = 999
REV_AT_EPOCH   = 84841
BSTAR          = -.96382E-4
MEAN_MOTION_DOT = -.235E-5
MEAN_MOTION_DDOT = 0

CCSDS_OMM_VERS = 2.0
CREATION_DATE  = 
ORIGINATOR     = 

OBJECT_NAME    = COSMOS 2084
OBJECT_ID      = 1990-055A
CENTER_NAME    = EARTH
REF_FRAME      = TEME
TIME_SYSTEM    = UTC
MEAN_ELEMENT_THEORY = SGP/SGP4

EPOCH          = 2026-03-09T20:30:53.913888
MEAN_MOTION    = 15.05653375
ECCENTRICITY   = .0017016
INCLINATION    = 62.7921
RA_OF_ASC_NODE = 335.0153
ARG_OF_PERICENTER = 190.1058
MEAN_ANOMALY   = 169.9703

EPHEMERIS_TYPE = 0
CLASSIFICATION_TYPE = U
NORAD_CAT_ID   = 20663
ELEMENT_SET_NO = 999
REV_AT_EPOCH   = 93634
BSTAR          = .23541E-3
MEAN_MOTION_DOT = .3224E-4
MEAN_MOTION_DDOT = 0

CCSDS_OMM_VERS = 2.0
CREATION_DATE  = 
ORIGINATOR     = 

OBJECT_NAME    = SL-6 R/B(2)
OBJECT_ID      = 1990-055D
CENTER_NAME    = EARTH
REF_FRAME      = TEME
TIME_SYSTEM    = UTC
MEAN_ELEMENT_THEORY = SGP/SGP4

EPOCH          = 2026-03-09T20:06:13.500000
MEAN_MOTION    = 15.03595131
ECCENTRICITY   = .0024765
INCLINATION    = 62.7825
RA_OF_ASC_NODE = 253.3472
ARG_OF_PERICENTER = 347.1256
MEAN_ANOMALY   = 12.9207

EPHEMERIS_TYPE = 0
CLASSIFICATION_TYPE = U
NORAD_CAT_ID   = 20666
ELEMENT_SET_NO = 999
REV_AT_EPOCH   = 93821
BSTAR          = .20856E-3
MEAN_MOTION_DOT = .2682E-4
MEAN_MOTION_DDOT = 0

CCSDS_OMM_VERS = 2.0
CREATION_DATE  = 
ORIGINATOR     = 

OBJECT_NAME    = SL-8 R/B
OBJECT_ID      = 1990-078B
CENTER_NAME    = EARTH
REF_FRAME      = TEME
TIME_SYSTEM    = UTC
MEAN_ELEMENT_THEORY = SGP/SGP4

EPOCH          = 2026-03-09T13:48:54.227232
MEAN_MOTION    = 14.89054414
ECCENTRICITY   = .0362313
INCLINATION    = 82.9005
RA_OF_ASC_NODE = 251.4134
ARG_OF_PERICENTER = 14.3826
MEAN_ANOMALY   = 346.7376

EPHEMERIS_TYPE = 0
CLASSIFICATION_TYPE = U
NORAD_CAT_ID   = 20775
ELEMENT_SET_NO = 999
REV_AT_EPOCH   = 80928
BSTAR          = .50427E-3
MEAN_MOTION_DOT = .1713E-3
MEAN_MOTION_DDOT = 0

CCSDS_OMM_VERS = 2.0
CREATION_DATE  = 
ORIGINATOR     = 

OBJECT_NAME    = SL-8 R/B
OBJECT_ID      = 1991-006B
CENTER_NAME    = EARTH
REF_FRAME      = TEME
TIME_SYSTEM    = UTC
MEAN_ELEMENT_THEORY = SGP/SGP4

EPOCH          = 2026-03-09T18:44:55.019040
MEAN_MOTION    = 13.77494195
ECCENTRICITY   = .0023079
INCLINATION    = 82.9466
RA_OF_ASC_NODE = 169.9779
ARG_OF_PERICENTER = 38.0675
MEAN_ANOMALY   = 80.4726

EPHEMERIS_TYPE = 0
CLASSIFICATION_TYPE = U
NORAD_CAT_ID   = 21088
ELEMENT_SET_NO = 999
REV_AT_EPOCH   = 76408
BSTAR          = .62827E-4
MEAN_MOTION_DOT = .78E-6
MEAN_MOTION_DDOT = 0

CCSDS_OMM_VERS = 2.0
CREATION_DATE  = 
ORIGINATOR     = 

OBJECT_NAME    = OKEAN-3
OBJECT_ID      = 1991-039A
CENTER_NAME    = EARTH
REF_FRAME      = TEME
TIME_SYSTEM    = UTC
MEAN_ELEMENT_THEORY = SGP/SGP4

EPOCH          = 2026-03-09T19:29:17.530944
MEAN_MOTION    = 15.04805880
ECCENTRICITY   = .0013941
INCLINATION    = 82.5190
RA_OF_ASC_NODE = 336.7249
ARG_OF_PERICENTER = 337.9296
MEAN_ANOMALY   = 22.1329

EPHEMERIS_TYPE = 0
CLASSIFICATION_TYPE = U
NORAD_CAT_ID   = 21397
ELEMENT_SET_NO = 999
REV_AT_EPOCH   = 86505
BSTAR          = .31885E-3
MEAN_MOTION_DOT = .4536E-4
MEAN_MOTION_DDOT = 0

CCSDS_OMM_VERS = 2.0
CREATION_DATE  = 
ORIGINATOR     = 

OBJECT_NAME    = COSMOS 2151
OBJECT_ID      = 1991-042A
CENTER_NAME    = EARTH
REF_FRAME      = TEME
TIME_SYSTEM    = UTC
MEAN_ELEMENT_THEORY = SGP/SGP4

EPOCH          = 2026-03-09T19:36:07.535232
MEAN_MOTION    = 15.00104600
ECCENTRICITY   = .0013996
INCLINATION    = 82.4930
RA_OF_ASC_NODE = 83.5536
ARG_OF_PERICENTER = 63.5167
MEAN_ANOMALY   = 296.7490

EPHEMERIS_TYPE = 0
CLASSIFICATION_TYPE = U
NORAD_CAT_ID   = 21422
ELEMENT_SET_NO = 999
REV_AT_EPOCH   = 86321
BSTAR          = .15011E-3
MEAN_MOTION_DOT = .1901E-4
MEAN_MOTION_DDOT = 0

CCSDS_OMM_VERS = 2.0
CREATION_DATE  = 
ORIGINATOR     = 

OBJECT_NAME    = SL-14 R/B
OBJECT_ID      = 1991-042B
CENTER_NAME    = EARTH
REF_FRAME      = TEME
TIME_SYSTEM    = UTC
MEAN_ELEMENT_THEORY = SGP/SGP4

EPOCH          = 2026-03-09T19:48:23.124096
MEAN_MOTION    = 14.81829764
ECCENTRICITY   = .0015796
INCLINATION    = 82.4923
RA_OF_ASC_NODE = 220.0551
ARG_OF_PERICENTER = 238.1586
MEAN_ANOMALY   = 121.8091

EPHEMERIS_TYPE = 0
CLASSIFICATION_TYPE = U
NORAD_CAT_ID   = 21423
ELEMENT_SET_NO = 999
REV_AT_EPOCH   = 85309
BSTAR          = .79253E-4
MEAN_MOTION_DOT = .65E-5
MEAN_MOTION_DDOT = 0

